{"fetched_at":"2026-07-24T07:06:33.741Z","source":"https://celestrak.org/NORAD/elements/gp.php?NAME=HULIANWANG&FORMAT=JSON","constellation":"guowang","records":[{"OBJECT_NAME":"HULIANWANG DIGUI-12","OBJECT_ID":"2025-030B","EPOCH":"2026-07-23T18:44:35.528064","CLASSIFICATION_TYPE":"U","MEAN_MOTION":13.29322693,"ECCENTRICITY":0.0000833,"INCLINATION":50.0024,"RA_OF_ASC_NODE":104.705,"ARG_OF_PERICENTER":299.0368,"MEAN_ANOMALY":61.0421,"EPHEMERIS_TYPE":0,"NORAD_CAT_ID":62972,"ELEMENT_SET_NO":999,"REV_AT_EPOCH":7072,"BSTAR":0.000055681,"MEAN_MOTION_DOT":-9.8e-7,"MEAN_MOTION_DDOT":0},{"OBJECT_NAME":"HULIANWANG DIGUI-13","OBJECT_ID":"2025-030C","EPOCH":"2026-07-23T20:08:38.588064","CLASSIFICATION_TYPE":"U","MEAN_MOTION":13.29324833,"ECCENTRICITY":0.0000646,"INCLINATION":50.0026,"RA_OF_ASC_NODE":104.3636,"ARG_OF_PERICENTER":301.4402,"MEAN_ANOMALY":58.6407,"EPHEMERIS_TYPE":0,"NORAD_CAT_ID":62973,"ELEMENT_SET_NO":999,"REV_AT_EPOCH":7073,"BSTAR":0.000047143,"MEAN_MOTION_DOT":-0.00000102,"MEAN_MOTION_DDOT":0},{"OBJECT_NAME":"HULIANWANG DIGUI-14","OBJECT_ID":"2025-030D","EPOCH":"2026-07-23T12:19:35.211072","CLASSIFICATION_TYPE":"U","MEAN_MOTION":13.29327845,"ECCENTRICITY":0.0000661,"INCLINATION":50.0032,"RA_OF_ASC_NODE":105.3352,"ARG_OF_PERICENTER":304.0323,"MEAN_ANOMALY":56.0486,"EPHEMERIS_TYPE":0,"NORAD_CAT_ID":62974,"ELEMENT_SET_NO":999,"REV_AT_EPOCH":7069,"BSTAR":0.000025411,"MEAN_MOTION_DOT":-0.00000112,"MEAN_MOTION_DDOT":0},{"OBJECT_NAME":"HULIANWANG DIGUI-15","OBJECT_ID":"2025-030E","EPOCH":"2026-07-23T19:56:39.067008","CLASSIFICATION_TYPE":"U","MEAN_MOTION":13.29324897,"ECCENTRICITY":0.0000738,"INCLINATION":50.0027,"RA_OF_ASC_NODE":104.3232,"ARG_OF_PERICENTER":304.2795,"MEAN_ANOMALY":55.8007,"EPHEMERIS_TYPE":0,"NORAD_CAT_ID":62975,"ELEMENT_SET_NO":999,"REV_AT_EPOCH":7073,"BSTAR":0.000048716,"MEAN_MOTION_DOT":-0.00000101,"MEAN_MOTION_DDOT":0},{"OBJECT_NAME":"HULIANWANG DIGUI-16","OBJECT_ID":"2025-030F","EPOCH":"2026-07-23T19:20:43.267776","CLASSIFICATION_TYPE":"U","MEAN_MOTION":13.29325997,"ECCENTRICITY":0.000061,"INCLINATION":50.0049,"RA_OF_ASC_NODE":104.2845,"ARG_OF_PERICENTER":303.1579,"MEAN_ANOMALY":56.9235,"EPHEMERIS_TYPE":0,"NORAD_CAT_ID":62976,"ELEMENT_SET_NO":999,"REV_AT_EPOCH":7073,"BSTAR":0.000042872,"MEAN_MOTION_DOT":-0.00000104,"MEAN_MOTION_DDOT":0},{"OBJECT_NAME":"HULIANWANG DIGUI-17","OBJECT_ID":"2025-030G","EPOCH":"2026-07-23T19:08:32.937216","CLASSIFICATION_TYPE":"U","MEAN_MOTION":13.29326068,"ECCENTRICITY":0.0000733,"INCLINATION":50.0061,"RA_OF_ASC_NODE":104.293,"ARG_OF_PERICENTER":294.1127,"MEAN_ANOMALY":65.9669,"EPHEMERIS_TYPE":0,"NORAD_CAT_ID":62977,"ELEMENT_SET_NO":999,"REV_AT_EPOCH":7073,"BSTAR":0.000037204,"MEAN_MOTION_DOT":-0.00000107,"MEAN_MOTION_DDOT":0},{"OBJECT_NAME":"HULIANWANG DIGUI-18","OBJECT_ID":"2025-030H","EPOCH":"2026-07-23T18:56:28.845600","CLASSIFICATION_TYPE":"U","MEAN_MOTION":13.2932412,"ECCENTRICITY":0.0000784,"INCLINATION":50.0068,"RA_OF_ASC_NODE":104.2647,"ARG_OF_PERICENTER":298.5474,"MEAN_ANOMALY":61.5319,"EPHEMERIS_TYPE":0,"NORAD_CAT_ID":62978,"ELEMENT_SET_NO":999,"REV_AT_EPOCH":7073,"BSTAR":0.000014227,"MEAN_MOTION_DOT":-0.00000117,"MEAN_MOTION_DDOT":0},{"OBJECT_NAME":"HULIANWANG DIGUI-19","OBJECT_ID":"2025-030J","EPOCH":"2026-07-23T19:44:51.235872","CLASSIFICATION_TYPE":"U","MEAN_MOTION":13.29319477,"ECCENTRICITY":0.0000639,"INCLINATION":50.0051,"RA_OF_ASC_NODE":104.3794,"ARG_OF_PERICENTER":291.2877,"MEAN_ANOMALY":68.7927,"EPHEMERIS_TYPE":0,"NORAD_CAT_ID":62979,"ELEMENT_SET_NO":999,"REV_AT_EPOCH":7073,"BSTAR":0.000043613,"MEAN_MOTION_DOT":-0.00000104,"MEAN_MOTION_DDOT":0},{"OBJECT_NAME":"HULIANWANG DIGUI-20","OBJECT_ID":"2025-086A","EPOCH":"2026-07-23T19:36:08.508096","CLASSIFICATION_TYPE":"U","MEAN_MOTION":13.24411904,"ECCENTRICITY":0.00022,"INCLINATION":86.5064,"RA_OF_ASC_NODE":300.7971,"ARG_OF_PERICENTER":109.689,"MEAN_ANOMALY":250.4481,"EPHEMERIS_TYPE":0,"NORAD_CAT_ID":63687,"ELEMENT_SET_NO":999,"REV_AT_EPOCH":5972,"BSTAR":0.000041607,"MEAN_MOTION_DOT":3.3e-7,"MEAN_MOTION_DDOT":0},{"OBJECT_NAME":"HULIANWANG DIGUI-21","OBJECT_ID":"2025-086B","EPOCH":"2026-07-23T19:47:04.483680","CLASSIFICATION_TYPE":"U","MEAN_MOTION":13.2441056,"ECCENTRICITY":0.0002172,"INCLINATION":86.5092,"RA_OF_ASC_NODE":300.8622,"ARG_OF_PERICENTER":112.9937,"MEAN_ANOMALY":247.1426,"EPHEMERIS_TYPE":0,"NORAD_CAT_ID":63688,"ELEMENT_SET_NO":999,"REV_AT_EPOCH":5971,"BSTAR":0.000060265,"MEAN_MOTION_DOT":4.1e-7,"MEAN_MOTION_DDOT":0},{"OBJECT_NAME":"HULIANWANG DIGUI-22","OBJECT_ID":"2025-086C","EPOCH":"2026-07-23T19:57:54.107136","CLASSIFICATION_TYPE":"U","MEAN_MOTION":13.24410904,"ECCENTRICITY":0.0002241,"INCLINATION":86.5057,"RA_OF_ASC_NODE":300.7153,"ARG_OF_PERICENTER":108.7353,"MEAN_ANOMALY":251.4024,"EPHEMERIS_TYPE":0,"NORAD_CAT_ID":63689,"ELEMENT_SET_NO":999,"REV_AT_EPOCH":5971,"BSTAR":0.000064939,"MEAN_MOTION_DOT":4.3e-7,"MEAN_MOTION_DDOT":0},{"OBJECT_NAME":"HULIANWANG DIGUI-23","OBJECT_ID":"2025-086D","EPOCH":"2026-07-23T20:19:37.623072","CLASSIFICATION_TYPE":"U","MEAN_MOTION":13.24410728,"ECCENTRICITY":0.0002219,"INCLINATION":86.51,"RA_OF_ASC_NODE":300.9034,"ARG_OF_PERICENTER":109.3928,"MEAN_ANOMALY":250.7446,"EPHEMERIS_TYPE":0,"NORAD_CAT_ID":63690,"ELEMENT_SET_NO":999,"REV_AT_EPOCH":5971,"BSTAR":0.0000486,"MEAN_MOTION_DOT":3.6e-7,"MEAN_MOTION_DDOT":0},{"OBJECT_NAME":"HULIANWANG DIGUI-24","OBJECT_ID":"2025-086E","EPOCH":"2026-07-23T20:30:33.107904","CLASSIFICATION_TYPE":"U","MEAN_MOTION":13.24411354,"ECCENTRICITY":0.000221,"INCLINATION":86.5106,"RA_OF_ASC_NODE":300.9367,"ARG_OF_PERICENTER":111.7791,"MEAN_ANOMALY":248.3578,"EPHEMERIS_TYPE":0,"NORAD_CAT_ID":63691,"ELEMENT_SET_NO":999,"REV_AT_EPOCH":5971,"BSTAR":-0.0000081124,"MEAN_MOTION_DOT":1.1e-7,"MEAN_MOTION_DDOT":0},{"OBJECT_NAME":"HULIANWANG DIGUI-25","OBJECT_ID":"2025-086F","EPOCH":"2026-07-23T20:41:26.144160","CLASSIFICATION_TYPE":"U","MEAN_MOTION":13.24410797,"ECCENTRICITY":0.0002139,"INCLINATION":86.5045,"RA_OF_ASC_NODE":300.673,"ARG_OF_PERICENTER":110.3203,"MEAN_ANOMALY":249.8161,"EPHEMERIS_TYPE":0,"NORAD_CAT_ID":63692,"ELEMENT_SET_NO":999,"REV_AT_EPOCH":5971,"BSTAR":0.000012151,"MEAN_MOTION_DOT":2e-7,"MEAN_MOTION_DDOT":0},{"OBJECT_NAME":"HULIANWANG DIGUI-26","OBJECT_ID":"2025-086G","EPOCH":"2026-07-23T20:08:45.674592","CLASSIFICATION_TYPE":"U","MEAN_MOTION":13.24409746,"ECCENTRICITY":0.0002398,"INCLINATION":86.5093,"RA_OF_ASC_NODE":300.873,"ARG_OF_PERICENTER":113.6233,"MEAN_ANOMALY":246.5153,"EPHEMERIS_TYPE":0,"NORAD_CAT_ID":63693,"ELEMENT_SET_NO":999,"REV_AT_EPOCH":5971,"BSTAR":0.000063342,"MEAN_MOTION_DOT":4.2e-7,"MEAN_MOTION_DDOT":0},{"OBJECT_NAME":"HULIANWANG DIGUI-27","OBJECT_ID":"2025-086H","EPOCH":"2026-07-23T19:03:28.236384","CLASSIFICATION_TYPE":"U","MEAN_MOTION":13.24412531,"ECCENTRICITY":0.0002213,"INCLINATION":86.5054,"RA_OF_ASC_NODE":300.7432,"ARG_OF_PERICENTER":111.1419,"MEAN_ANOMALY":248.9951,"EPHEMERIS_TYPE":0,"NORAD_CAT_ID":63694,"ELEMENT_SET_NO":999,"REV_AT_EPOCH":5970,"BSTAR":-0.000029281,"MEAN_MOTION_DOT":2e-8,"MEAN_MOTION_DDOT":0}]}
