HULIANWANG DIGUI-12     
1 62972U 25030B   26204.78096676 -.00000098  00000+0  55681-4 0  9995
2 62972  50.0024 104.7050 0000833 299.0368  61.0421 13.29322693 70727
HULIANWANG DIGUI-13     
1 62973U 25030C   26204.83933551 -.00000102  00000+0  47143-4 0  9994
2 62973  50.0026 104.3636 0000646 301.4402  58.6407 13.29324833 70730
HULIANWANG DIGUI-14     
1 62974U 25030D   26204.51360198 -.00000112  00000+0  25411-4 0  9996
2 62974  50.0032 105.3352 0000661 304.0323  56.0486 13.29327845 70692
HULIANWANG DIGUI-15     
1 62975U 25030E   26204.83100772 -.00000101  00000+0  48716-4 0  9993
2 62975  50.0027 104.3232 0000738 304.2795  55.8007 13.29324897 70738
HULIANWANG DIGUI-16     
1 62976U 25030F   26204.80605634 -.00000104  00000+0  42872-4 0  9998
2 62976  50.0049 104.2845 0000610 303.1579  56.9235 13.29325997 70736
HULIANWANG DIGUI-17     
1 62977U 25030G   26204.79760344 -.00000107  00000+0  37204-4 0  9993
2 62977  50.0061 104.2930 0000733 294.1127  65.9669 13.29326068 70731
HULIANWANG DIGUI-18     
1 62978U 25030H   26204.78922275 -.00000117  00000+0  14227-4 0  9997
2 62978  50.0068 104.2647 0000784 298.5474  61.5319 13.29324120 70734
HULIANWANG DIGUI-19     
1 62979U 25030J   26204.82281523 -.00000104  00000+0  43613-4 0  9994
2 62979  50.0051 104.3794 0000639 291.2877  68.7927 13.29319477 70730
HULIANWANG DIGUI-20     
1 63687U 25086A   26204.81676514  .00000033  00000+0  41607-4 0  9990
2 63687  86.5064 300.7971 0002200 109.6890 250.4481 13.24411904 59721
HULIANWANG DIGUI-21     
1 63688U 25086B   26204.82435745  .00000041  00000+0  60265-4 0  9991
2 63688  86.5092 300.8622 0002172 112.9937 247.1426 13.24410560 59712
HULIANWANG DIGUI-22     
1 63689U 25086C   26204.83187624  .00000043  00000+0  64939-4 0  9997
2 63689  86.5057 300.7153 0002241 108.7353 251.4024 13.24410904 59718
HULIANWANG DIGUI-23     
1 63690U 25086D   26204.84696323  .00000036  00000+0  48600-4 0  9990
2 63690  86.5100 300.9034 0002219 109.3928 250.7446 13.24410728 59713
HULIANWANG DIGUI-24     
1 63691U 25086E   26204.85454986  .00000011  00000+0 -81124-5 0  9992
2 63691  86.5106 300.9367 0002210 111.7791 248.3578 13.24411354 59710
HULIANWANG DIGUI-25     
1 63692U 25086F   26204.86210815  .00000020  00000+0  12151-4 0  9997
2 63692  86.5045 300.6730 0002139 110.3203 249.8161 13.24410797 59711
HULIANWANG DIGUI-26     
1 63693U 25086G   26204.83941753  .00000042  00000+0  63342-4 0  9999
2 63693  86.5093 300.8730 0002398 113.6233 246.5153 13.24409746 59710
HULIANWANG DIGUI-27     
1 63694U 25086H   26204.79407681  .00000002  00000+0 -29281-4 0  9993
2 63694  86.5054 300.7432 0002213 111.1419 248.9951 13.24412531 59708
